SatCatId,ObjectName,LaunchYear,OrbitalPeriod,LaunchMass,StatusCode,Inclination,Status,UcsData,OrbitClassEstimated,LaunchSiteCountry,Owner,UseType,Purpose,LaunchVehicleClass,TLE1,TLE2,MeanMotion,Eccentricity,OrbitClass
51623,ONEWEB-0411,2022,109.89,148.0,+,87.9,Active,1,LEO,French Guiana,UK,Commercial,Communications,Soyuz,1 51623U 22012B   24131.54379125  .00000520  00000+0  14533-2 0  9995,2 51623  87.8974 188.8394 0002828  98.9737 261.1711 13.10368984108759,13.10368984,0.0002828,LEO
51624,ONEWEB-0415,2022,109.89,148.0,+,87.9,Active,1,LEO,French Guiana,UK,Commercial,Communications,Soyuz,1 51624U 22012C   24131.54047331  .00000549  00000+0  15372-2 0  9990,2 51624  87.8968 188.8643 0002435  94.6414 265.4992 13.10372058108754,13.10372058,0.0002435,LEO
51625,ONEWEB-0416,2022,109.89,148.0,+,87.9,Active,1,LEO,French Guiana,UK,Commercial,Communications,Soyuz,1 51625U 22012D   24131.55208451 -.00000002  00000+0 -40567-4 0  9996,2 51625  87.8971 188.8547 0002020  97.8125 262.3232 13.10370881108795,13.10370881,0.000202,LEO
51626,ONEWEB-0422,2022,109.29,148.0,+,87.92,Active,1,LEO,French Guiana,UK,Commercial,Communications,Soyuz,1 51626U 22012E   24131.51262784  .00000045  00000+0  83171-4 0  9995,2 51626  87.9176 158.6380 0002122 114.9160 245.2192 13.17650068112714,13.17650068,0.0002122,LEO
51627,ONEWEB-0423,2022,109.29,148.0,+,87.92,Active,1,LEO,French Guiana,UK,Commercial,Communications,Soyuz,1 51627U 22012F   24131.58224436 -.00000009  00000+0 -55704-4 0  9998,2 51627  87.9178 158.6247 0001920  94.5276 265.6075 13.17648759112614,13.17648759,0.000192,LEO
51628,ONEWEB-0425,2022,109.89,148.0,+,87.9,Active,1,LEO,French Guiana,UK,Commercial,Communications,Soyuz,1 51628U 22012G   24131.56202941 -.00000474  00000+0 -13950-2 0  9995,2 51628  87.8970 188.8374 0001654  94.3588 265.7729 13.10370591108798,13.10370591,0.0001654,LEO
51629,ONEWEB-0428,2022,109.89,148.0,+,87.9,Active,1,LEO,French Guiana,UK,Commercial,Communications,Soyuz,1 51629U 22012H   24131.54212407  .00000461  00000+0  12836-2 0  9998,2 51629  87.8972 188.8562 0002320 104.1302 256.0083 13.10369390108752,13.1036939,0.000232,LEO
51630,ONEWEB-0431,2022,109.89,148.0,+,87.9,Active,1,LEO,French Guiana,UK,Commercial,Communications,Soyuz,1 51630U 22012J   24131.43574919  .00000041  00000+0  82229-4 0  9996,2 51630  87.8971 188.8769 0002811 103.0679 257.0762 13.10376540108796,13.1037654,0.0002811,LEO
51631,ONEWEB-0434,2022,109.89,148.0,+,87.9,Active,1,LEO,French Guiana,UK,Commercial,Communications,Soyuz,1 51631U 22012K   24131.56534395 -.00000532  00000+0 -15601-2 0  9990,2 51631  87.8975 188.8639 0002070 104.0896 256.0461 13.10369827108791,13.10369827,0.000207,LEO
51632,ONEWEB-0435,2022,109.89,148.0,+,87.9,Active,1,LEO,French Guiana,UK,Commercial,Communications,Soyuz,1 51632U 22012L   24131.57364212 -.00000596  00000+0 -17437-2 0  9990,2 51632  87.8974 188.8527 0002185 110.1060 250.0303 13.10372048108782,13.10372048,0.0002185,LEO
51633,ONEWEB-0436,2022,109.29,148.0,+,87.92,Active,1,LEO,French Guiana,UK,Commercial,Communications,Soyuz,1 51633U 22012M   24131.57432076  .00000027  00000+0  37195-4 0  9997,2 51633  87.9172 158.6326 0002039 100.1677 259.9684 13.17648168112597,13.17648168,0.0002039,LEO
51634,ONEWEB-0438,2022,109.89,148.0,+,87.9,Active,1,LEO,French Guiana,UK,Commercial,Communications,Soyuz,1 51634U 22012N   24131.55705622 -.00000263  00000+0 -78978-3 0  9993,2 51634  87.8971 188.8562 0001850  96.7891 263.3446 13.10369549108810,13.10369549,0.000185,LEO
51635,ONEWEB-0439,2022,109.89,148.0,+,87.9,Active,1,LEO,French Guiana,UK,Commercial,Communications,Soyuz,1 51635U 22012P   24131.56037750 -.00000266  00000+0 -79906-3 0  9990,2 51635  87.8973 188.8400 0002137 100.0779 260.0589 13.10372102108795,13.10372102,0.0002137,LEO
51636,ONEWEB-0442,2022,109.29,148.0,+,87.92,Active,1,LEO,French Guiana,UK,Commercial,Communications,Soyuz,1 51636U 22012Q   24131.56563421 -.00000004  00000+0 -42604-4 0  9996,2 51636  87.9177 158.6677 0002123  70.7670 289.3691 13.17649004112587,13.17649004,0.0002123,LEO
51637,ONEWEB-0443,2022,109.29,148.0,+,87.92,Active,1,LEO,French Guiana,UK,Commercial,Communications,Soyuz,1 51637U 22012R   24131.50946446  .00000029  00000+0  40650-4 0  9997,2 51637  87.9180 158.6860 0001782 106.7681 253.3646 13.17648183112621,13.17648183,0.0001782,LEO
51638,ONEWEB-0444,2022,109.89,148.0,+,87.9,Active,1,LEO,French Guiana,UK,Commercial,Communications,Soyuz,1 51638U 22012S   24131.55041883  .00000094  00000+0  23349-3 0  9991,2 51638  87.8966 188.8658 0001999 105.0715 255.0634 13.10372209108800,13.10372209,0.0001999,LEO
51639,ONEWEB-0445,2022,109.89,148.0,+,87.9,Active,1,LEO,French Guiana,UK,Commercial,Communications,Soyuz,1 51639U 22012T   24131.57198856 -.00000612  00000+0 -17904-2 0  9994,2 51639  87.8964 188.8356 0002158  90.6250 269.5125 13.10373034108818,13.10373034,0.0002158,LEO
51640,ONEWEB-0446,2022,109.9,148.0,+,87.9,Active,1,LEO,French Guiana,UK,Commercial,Communications,Soyuz,1 51640U 22012U   24131.54876225  .00000178  00000+0  47228-3 0  9994,2 51640  87.8970 188.8608 0002281  91.5382 268.6007 13.10372749108798,13.10372749,0.0002281,LEO
51641,ONEWEB-0448,2022,109.89,148.0,+,87.9,Active,1,LEO,French Guiana,UK,Commercial,Communications,Soyuz,1 51641U 22012V   24131.55373884  .00000059  00000+0  13242-3 0  9996,2 51641  87.8969 188.8608 0001940 103.4432 256.6912 13.10369777108763,13.10369777,0.000194,LEO
51642,ONEWEB-0449,2022,109.89,148.0,+,87.9,Active,1,LEO,French Guiana,UK,Commercial,Communications,Soyuz,1 51642U 22012W   24131.55871204 -.00000353  00000+0 -10474-2 0  9998,2 51642  87.8966 188.8570 0001804  93.4687 266.6647 13.10369246108776,13.10369246,0.0001804,LEO
51643,ONEWEB-0451,2022,109.29,148.0,+,87.92,Active,1,LEO,French Guiana,UK,Commercial,Communications,Soyuz,1 51643U 22012X   24131.56958740 -.00000001  00000+0 -36579-4 0  9997,2 51643  87.9173 158.6310 0001907  96.2922 263.8427 13.17648710112573,13.1764871,0.0001907,LEO
51644,ONEWEB-0452,2022,109.29,148.0,+,87.92,Active,1,LEO,French Guiana,UK,Commercial,Communications,Soyuz,1 51644U 22012Y   24131.56799555  .00000016  00000+0  70391-5 0  9990,2 51644  87.9178 158.6691 0001670  91.4200 268.7123 13.17648515112585,13.17648515,0.000167,LEO
51646,ONEWEB-0456,2022,109.89,148.0,+,87.9,Active,1,LEO,French Guiana,UK,Commercial,Communications,Soyuz,1 51646U 22012AA  24131.56866438 -.00000594  00000+0 -17386-2 0  9992,2 51646  87.8965 188.8287 0002405 102.4939 257.6457 13.10371465108813,13.10371465,0.0002405,LEO
51647,ONEWEB-0457,2022,109.89,148.0,+,87.9,Active,1,LEO,French Guiana,UK,Commercial,Communications,Soyuz,1 51647U 22012AB  24131.54544233  .00000465  00000+0  12968-2 0  9993,2 51647  87.8972 188.8516 0001862  87.2047 272.9293 13.10369069108818,13.10369069,0.0001862,LEO
51648,ONEWEB-0458,2022,109.89,148.0,+,87.9,Active,1,LEO,French Guiana,UK,Commercial,Communications,Soyuz,1 51648U 22012AC  24131.56700465 -.00000460  00000+0 -13537-2 0  9997,2 51648  87.8978 188.8630 0001932 101.9797 258.1546 13.10370159108770,13.10370159,0.0001932,LEO
51649,ONEWEB-0461,2022,109.29,148.0,+,87.92,Active,1,LEO,French Guiana,UK,Commercial,Communications,Soyuz,1 51649U 22012AD  24131.51420721  .00000014  00000+0  39173-5 0  9997,2 51649  87.9174 158.6497 0002046  89.4625 270.6741 13.17648520112793,13.1764852,0.0002046,LEO
51650,ONEWEB-0463,2022,109.29,148.0,+,87.92,Active,1,LEO,French Guiana,UK,Commercial,Communications,Soyuz,1 51650U 22012AE  24131.57275013  .00000025  00000+0  30839-4 0  9998,2 51650  87.9178 158.6834 0001968  90.8037 269.3320 13.17648002112589,13.17648002,0.0001968,LEO
51651,ONEWEB-0464,2022,109.89,148.0,+,87.9,Active,1,LEO,French Guiana,UK,Commercial,Communications,Soyuz,1 51651U 22012AF  24131.56368783 -.00000481  00000+0 -14143-2 0  9991,2 51651  87.8975 188.8522 0002318 107.8006 252.3374 13.10370134108798,13.10370134,0.0002318,LEO
51652,ONEWEB-0468,2022,109.89,148.0,+,87.9,Active,1,LEO,French Guiana,UK,Commercial,Communications,Soyuz,1 51652U 22012AG  24131.57032676 -.00000630  00000+0 -18403-2 0  9991,2 51652  87.8976 188.8439 0002086 101.0330 259.1032 13.10372471108775,13.10372471,0.0002086,LEO
51653,ONEWEB-0473,2022,109.89,148.0,+,87.9,Active,1,LEO,French Guiana,UK,Commercial,Communications,Soyuz,1 51653U 22012AH  24131.55540029 -.00000192  00000+0 -58728-3 0  9994,2 51653  87.8971 188.8500 0002018 101.9552 258.1801 13.10370128108770,13.10370128,0.0002018,LEO
51654,ONEWEB-0474,2022,109.89,148.0,+,87.9,Active,1,LEO,French Guiana,UK,Commercial,Communications,Soyuz,1 51654U 22012AJ  24131.54710313  .00000261  00000+0  71160-3 0  9999,2 51654  87.8962 188.8519 0002033 106.6372 253.4979 13.10369852108765,13.10369852,0.0002033,LEO
51655,ONEWEB-0475,2022,109.29,148.0,+,87.92,Active,1,LEO,French Guiana,UK,Commercial,Communications,Soyuz,1 51655U 22012AK  24131.50788941 -.00000004  00000+0 -43395-4 0  9995,2 51655  87.9178 158.6753 0001862 106.2336 253.9001 13.17649634112599,13.17649634,0.0001862,LEO
51656,EOS-4,2022,95.19,1710.0,+,97.51,Active,1,LEO,India,India,Government,Earth Observation,PSLV,1 51656U 22013A   24131.52097606  .00009214  00000+0  52927-3 0  9990,2 51656  97.5138 138.7917 0002058 112.7701 247.3747 15.12729066123434,15.12729066,0.0002058,LEO
51657,INSPIRESAT-1,2022,94.45,8.0,+,97.53,Active,1,LEO,India,India,Civil/Government,Earth Observation,PSLV,1 51657U 22013B   24131.55481201  .00018666  00000+0  75910-3 0  9990,2 51657  97.5317 148.1477 0006912 308.7884  51.2736 15.24564754123829,15.24564754,0.0006912,LEO
51658,INS-2TD,2022,93.45,17.5,+,97.52,Active,1,LEO,India,India,Government,Earth Observation,PSLV,1 51658U 22013C   24131.61137699  .00054276  00000+0  13082-2 0  9995,2 51658  97.5220 153.6474 0003638 269.0660  91.0169 15.41055383124201,15.41055383,0.0003638,LEO
51714,STARLINK-3528,2022,95.44,260.0,+,53.22,Active,1,LEO,USA,USA,Commercial,Communications,Falcon,1 51714U 22016A   24131.25208053  .00002551  00000+0  17825-3 0  9993,2 51714  53.2177  89.8544 0001037  84.2764 275.8346 15.08850530122516,15.0885053,0.0001037,LEO
